STARLINK-1062_new
1 14767C 19074BG  21326.17049352  .00007702  00000-0  51593-3 0  3260
2 14767  53.0541  67.9725 0001016  78.1609 334.2399 15.06397086    12
STARLINK-1062_old
1 24767C 19074BG  21325.11027418  .00004981  00000-0  33383-3 0  3254
2 24767  53.0536  72.7318 0001032  82.9360 336.7015 15.06384237    19
